[{"OBJECT_NAME":"STARLINK-3607","OBJECT_ID":"2022-017AT","EPOCH":"2026-03-09T21:31:25.452768","MEAN_MOTION":15.08852055,"ECCENTRICITY":0.00015183,"INCLINATION":53.2199,"RA_OF_ASC_NODE":338.1512,"ARG_OF_PERICENTER":55.8956,"MEAN_ANOMALY":304.218,"EPHEMERIS_TYPE":0,"CLASSIFICATION_TYPE":"U","NORAD_CAT_ID":51809,"ELEMENT_SET_NO":999,"REV_AT_EPOCH":22409,"BSTAR":0.00015558195,"MEAN_MOTION_DOT":2.19e-5,"MEAN_MOTION_DDOT":0},{"OBJECT_NAME":"COSMOS 397 DEB","OBJECT_ID":"1971-015S","EPOCH":"2026-03-09T10:33:28.052064","MEAN_MOTION":14.09044081,"ECCENTRICITY":0.04582659,"INCLINATION":65.7053,"RA_OF_ASC_NODE":78.3879,"ARG_OF_PERICENTER":64.4346,"MEAN_ANOMALY":300.3365,"EPHEMERIS_TYPE":0,"CLASSIFICATION_TYPE":"U","NORAD_CAT_ID":5091,"ELEMENT_SET_NO":999,"REV_AT_EPOCH":68954,"BSTAR":0.0011725806,"MEAN_MOTION_DOT":5.343e-5,"MEAN_MOTION_DDOT":0}]
